{"fetched_at":"2026-07-13T18:16:28.145Z","source":"https://celestrak.org/NORAD/elements/gp.php?GROUP=iridium-NEXT&FORMAT=JSON","constellation":"iridium","records":[{"OBJECT_NAME":"IRIDIUM 150","OBJECT_ID":"2018-030J","EPOCH":"2026-07-13T07:28:19.150464","CLASSIFICATION_TYPE":"U","MEAN_MOTION":14.34216194,"ECCENTRICITY":0.00021185,"INCLINATION":86.3959,"RA_OF_ASC_NODE":279.5438,"ARG_OF_PERICENTER":96.3708,"MEAN_ANOMALY":263.7729,"EPHEMERIS_TYPE":0,"NORAD_CAT_ID":43257,"ELEMENT_SET_NO":999,"REV_AT_EPOCH":43390,"BSTAR":-0.000079981514,"MEAN_MOTION_DOT":-0.00000204,"MEAN_MOTION_DDOT":0},{"OBJECT_NAME":"IRIDIUM 143","OBJECT_ID":"2018-030K","EPOCH":"2026-07-12T17:37:11.482752","CLASSIFICATION_TYPE":"U","MEAN_MOTION":14.34217359,"ECCENTRICITY":0.00023148,"INCLINATION":86.3963,"RA_OF_ASC_NODE":279.8786,"ARG_OF_PERICENTER":96.3911,"MEAN_ANOMALY":263.7548,"EPHEMERIS_TYPE":0,"NORAD_CAT_ID":43258,"ELEMENT_SET_NO":999,"REV_AT_EPOCH":43375,"BSTAR":0.000018596427,"MEAN_MOTION_DOT":7.2e-7,"MEAN_MOTION_DDOT":0},{"OBJECT_NAME":"IRIDIUM 161","OBJECT_ID":"2018-047C","EPOCH":"2026-07-11T03:46:43.203072","CLASSIFICATION_TYPE":"U","MEAN_MOTION":14.43284936,"ECCENTRICITY":0.00023067,"INCLINATION":86.4467,"RA_OF_ASC_NODE":78.4474,"ARG_OF_PERICENTER":78.818,"MEAN_ANOMALY":281.328,"EPHEMERIS_TYPE":0,"NORAD_CAT_ID":43478,"ELEMENT_SET_NO":999,"REV_AT_EPOCH":42859,"BSTAR":0.000045078032,"MEAN_MOTION_DOT":0.00000172,"MEAN_MOTION_DDOT":0},{"OBJECT_NAME":"IRIDIUM 152","OBJECT_ID":"2018-047D","EPOCH":"2026-07-13T04:41:10.497696","CLASSIFICATION_TYPE":"U","MEAN_MOTION":14.34219718,"ECCENTRICITY":0.00021328,"INCLINATION":86.3938,"RA_OF_ASC_NODE":77.4561,"ARG_OF_PERICENTER":83.5824,"MEAN_ANOMALY":276.5614,"EPHEMERIS_TYPE":0,"NORAD_CAT_ID":43479,"ELEMENT_SET_NO":999,"REV_AT_EPOCH":42621,"BSTAR":0.000046182226,"MEAN_MOTION_DOT":0.00000149,"MEAN_MOTION_DDOT":0},{"OBJECT_NAME":"IRIDIUM 147","OBJECT_ID":"2018-047E","EPOCH":"2026-07-13T04:50:18.164832","CLASSIFICATION_TYPE":"U","MEAN_MOTION":14.34217516,"ECCENTRICITY":0.00022655,"INCLINATION":86.394,"RA_OF_ASC_NODE":77.4591,"ARG_OF_PERICENTER":88.2952,"MEAN_ANOMALY":271.8503,"EPHEMERIS_TYPE":0,"NORAD_CAT_ID":43480,"ELEMENT_SET_NO":999,"REV_AT_EPOCH":42621,"BSTAR":0.000045839199,"MEAN_MOTION_DOT":0.00000148,"MEAN_MOTION_DDOT":0},{"OBJECT_NAME":"IRIDIUM 110","OBJECT_ID":"2018-047F","EPOCH":"2026-07-12T23:58:02.313696","CLASSIFICATION_TYPE":"U","MEAN_MOTION":14.34217966,"ECCENTRICITY":0.00021563,"INCLINATION":86.3943,"RA_OF_ASC_NODE":77.6367,"ARG_OF_PERICENTER":76.5156,"MEAN_ANOMALY":283.628,"EPHEMERIS_TYPE":0,"NORAD_CAT_ID":43481,"ELEMENT_SET_NO":999,"REV_AT_EPOCH":42617,"BSTAR":0.000045155031,"MEAN_MOTION_DOT":0.00000146,"MEAN_MOTION_DDOT":0},{"OBJECT_NAME":"IRIDIUM 162","OBJECT_ID":"2018-047G","EPOCH":"2026-07-10T02:40:06.655296","CLASSIFICATION_TYPE":"U","MEAN_MOTION":14.43283456,"ECCENTRICITY":0.00021871,"INCLINATION":86.4467,"RA_OF_ASC_NODE":78.7759,"ARG_OF_PERICENTER":84.2783,"MEAN_ANOMALY":275.8667,"EPHEMERIS_TYPE":0,"NORAD_CAT_ID":43482,"ELEMENT_SET_NO":999,"REV_AT_EPOCH":42843,"BSTAR":0.000050126108,"MEAN_MOTION_DOT":0.00000189,"MEAN_MOTION_DDOT":0},{"OBJECT_NAME":"IRIDIUM 160","OBJECT_ID":"2018-061A","EPOCH":"2026-07-13T00:20:30.323040","CLASSIFICATION_TYPE":"U","MEAN_MOTION":14.34216471,"ECCENTRICITY":0.00022215,"INCLINATION":86.3942,"RA_OF_ASC_NODE":45.9944,"ARG_OF_PERICENTER":85.9208,"MEAN_ANOMALY":274.2242,"EPHEMERIS_TYPE":0,"NORAD_CAT_ID":43569,"ELEMENT_SET_NO":999,"REV_AT_EPOCH":41707,"BSTAR":0.000036776511,"MEAN_MOTION_DOT":0.00000123,"MEAN_MOTION_DDOT":0},{"OBJECT_NAME":"IRIDIUM 166","OBJECT_ID":"2018-061B","EPOCH":"2026-07-11T12:06:46.347840","CLASSIFICATION_TYPE":"U","MEAN_MOTION":14.34217869,"ECCENTRICITY":0.00022602,"INCLINATION":86.394,"RA_OF_ASC_NODE":46.5761,"ARG_OF_PERICENTER":89.6407,"MEAN_ANOMALY":270.5047,"EPHEMERIS_TYPE":0,"NORAD_CAT_ID":43570,"ELEMENT_SET_NO":999,"REV_AT_EPOCH":41688,"BSTAR":0.000003931712,"MEAN_MOTION_DOT":3.1e-7,"MEAN_MOTION_DDOT":0},{"OBJECT_NAME":"IRIDIUM 158","OBJECT_ID":"2018-061C","EPOCH":"2026-07-13T00:11:22.485696","CLASSIFICATION_TYPE":"U","MEAN_MOTION":14.34217395,"ECCENTRICITY":0.00020617,"INCLINATION":86.394,"RA_OF_ASC_NODE":45.957,"ARG_OF_PERICENTER":86.49,"MEAN_ANOMALY":273.6532,"EPHEMERIS_TYPE":0,"NORAD_CAT_ID":43571,"ELEMENT_SET_NO":999,"REV_AT_EPOCH":41706,"BSTAR":0.00001389145,"MEAN_MOTION_DOT":5.9e-7,"MEAN_MOTION_DDOT":0},{"OBJECT_NAME":"IRIDIUM 165","OBJECT_ID":"2018-061D","EPOCH":"2026-07-12T13:04:38.438976","CLASSIFICATION_TYPE":"U","MEAN_MOTION":14.34217303,"ECCENTRICITY":0.00022661,"INCLINATION":86.3942,"RA_OF_ASC_NODE":46.1976,"ARG_OF_PERICENTER":90.8182,"MEAN_ANOMALY":269.3273,"EPHEMERIS_TYPE":0,"NORAD_CAT_ID":43572,"ELEMENT_SET_NO":999,"REV_AT_EPOCH":41702,"BSTAR":0.000025565263,"MEAN_MOTION_DOT":9.1e-7,"MEAN_MOTION_DDOT":0},{"OBJECT_NAME":"IRIDIUM 155","OBJECT_ID":"2018-061E","EPOCH":"2026-07-12T23:53:06.448992","CLASSIFICATION_TYPE":"U","MEAN_MOTION":14.34217272,"ECCENTRICITY":0.00021015,"INCLINATION":86.3939,"RA_OF_ASC_NODE":45.8772,"ARG_OF_PERICENTER":89.0391,"MEAN_ANOMALY":271.1045,"EPHEMERIS_TYPE":0,"NORAD_CAT_ID":43573,"ELEMENT_SET_NO":999,"REV_AT_EPOCH":41705,"BSTAR":0.00002137746,"MEAN_MOTION_DOT":8e-7,"MEAN_MOTION_DDOT":0},{"OBJECT_NAME":"IRIDIUM 154","OBJECT_ID":"2018-061F","EPOCH":"2026-07-12T23:25:42.406464","CLASSIFICATION_TYPE":"U","MEAN_MOTION":14.34217677,"ECCENTRICITY":0.00022896,"INCLINATION":86.3939,"RA_OF_ASC_NODE":46.0199,"ARG_OF_PERICENTER":90.2033,"MEAN_ANOMALY":269.9426,"EPHEMERIS_TYPE":0,"NORAD_CAT_ID":43574,"ELEMENT_SET_NO":999,"REV_AT_EPOCH":41710,"BSTAR":0.000038744629,"MEAN_MOTION_DOT":0.00000128,"MEAN_MOTION_DDOT":0},{"OBJECT_NAME":"IRIDIUM 163","OBJECT_ID":"2018-061G","EPOCH":"2026-07-13T00:38:46.419360","CLASSIFICATION_TYPE":"U","MEAN_MOTION":14.3421763,"ECCENTRICITY":0.0002152,"INCLINATION":86.3937,"RA_OF_ASC_NODE":45.9131,"ARG_OF_PERICENTER":85.5925,"MEAN_ANOMALY":274.5517,"EPHEMERIS_TYPE":0,"NORAD_CAT_ID":43575,"ELEMENT_SET_NO":999,"REV_AT_EPOCH":41708,"BSTAR":0.000031282612,"MEAN_MOTION_DOT":0.00000107,"MEAN_MOTION_DDOT":0},{"OBJECT_NAME":"IRIDIUM 156","OBJECT_ID":"2018-061H","EPOCH":"2026-07-13T00:02:14.475552","CLASSIFICATION_TYPE":"U","MEAN_MOTION":14.34217488,"ECCENTRICITY":0.00020753,"INCLINATION":86.3936,"RA_OF_ASC_NODE":45.9308,"ARG_OF_PERICENTER":91.5811,"MEAN_ANOMALY":268.5623,"EPHEMERIS_TYPE":0,"NORAD_CAT_ID":43576,"ELEMENT_SET_NO":999,"REV_AT_EPOCH":41707,"BSTAR":0.00001431614,"MEAN_MOTION_DOT":6e-7,"MEAN_MOTION_DDOT":0},{"OBJECT_NAME":"IRIDIUM 164","OBJECT_ID":"2018-061J","EPOCH":"2026-07-12T16:52:58.648512","CLASSIFICATION_TYPE":"U","MEAN_MOTION":14.34217636,"ECCENTRICITY":0.00023094,"INCLINATION":86.3939,"RA_OF_ASC_NODE":46.0967,"ARG_OF_PERICENTER":89.197,"MEAN_ANOMALY":270.949,"EPHEMERIS_TYPE":0,"NORAD_CAT_ID":43577,"ELEMENT_SET_NO":999,"REV_AT_EPOCH":41707,"BSTAR":0.000046176956,"MEAN_MOTION_DOT":0.00000149,"MEAN_MOTION_DDOT":0}]}
