IRIDIUM 150             
1 43257U 18030J   26194.31133276 -.00000204  00000+0 -79982-4 0  9997
2 43257  86.3959 279.5438 0002118  96.3708 263.7729 14.34216194433906
IRIDIUM 143             
1 43258U 18030K   26193.73416068  .00000072  00000+0  18596-4 0  9991
2 43258  86.3963 279.8786 0002314  96.3911 263.7548 14.34217359433751
IRIDIUM 161             
1 43478U 18047C   26192.15744448  .00000172  00000+0  45078-4 0  9990
2 43478  86.4467  78.4474 0002306  78.8180 281.3280 14.43284936428596
IRIDIUM 152             
1 43479U 18047D   26194.19526039  .00000149  00000+0  46182-4 0  9992
2 43479  86.3938  77.4561 0002132  83.5824 276.5614 14.34219718426210
IRIDIUM 147             
1 43480U 18047E   26194.20159913  .00000148  00000+0  45839-4 0  9996
2 43480  86.3940  77.4591 0002265  88.2952 271.8503 14.34217516426218
IRIDIUM 110             
1 43481U 18047F   26193.99863789  .00000146  00000+0  45155-4 0  9994
2 43481  86.3943  77.6367 0002156  76.5156 283.6280 14.34217966426177
IRIDIUM 162             
1 43482U 18047G   26191.11118814  .00000189  00000+0  50126-4 0  9990
2 43482  86.4467  78.7759 0002187  84.2783 275.8667 14.43283456428433
IRIDIUM 160             
1 43569U 18061A   26194.01423985  .00000123  00000+0  36777-4 0  9996
2 43569  86.3942  45.9944 0002221  85.9208 274.2242 14.34216471417070
IRIDIUM 166             
1 43570U 18061B   26192.50470310  .00000031  00000+0  39317-5 0  9996
2 43570  86.3940  46.5761 0002260  89.6407 270.5047 14.34217869416881
IRIDIUM 158             
1 43571U 18061C   26194.00789914  .00000059  00000+0  13891-4 0  9995
2 43571  86.3940  45.9570 0002061  86.4900 273.6532 14.34217395417063
IRIDIUM 165             
1 43572U 18061D   26193.54488934  .00000091  00000+0  25565-4 0  9999
2 43572  86.3942  46.1976 0002266  90.8182 269.3273 14.34217303417026
IRIDIUM 155             
1 43573U 18061E   26193.99521353  .00000080  00000+0  21377-4 0  9997
2 43573  86.3939  45.8772 0002101  89.0391 271.1045 14.34217272417059
IRIDIUM 154             
1 43574U 18061F   26193.97618526  .00000128  00000+0  38745-4 0  9995
2 43574  86.3939  46.0199 0002289  90.2033 269.9426 14.34217677417103
IRIDIUM 163             
1 43575U 18061G   26194.02692615  .00000107  00000+0  31283-4 0  9991
2 43575  86.3937  45.9131 0002152  85.5925 274.5517 14.34217630417081
IRIDIUM 156             
1 43576U 18061H   26194.00155643  .00000060  00000+0  14316-4 0  9991
2 43576  86.3936  45.9308 0002075  91.5811 268.5623 14.34217488417073
IRIDIUM 164             
1 43577U 18061J   26193.70345658  .00000149  00000+0  46177-4 0  9993
2 43577  86.3939  46.0967 0002309  89.1970 270.9490 14.34217636417073
